STARLINK-31908          
1 59901U 24100S   26068.52828074  .00000679  00000+0  34208-4 0  9991
2 59901  43.0036 119.2585 0001348 225.6709 134.4033 15.27569115101204
FLOCK 4G-15             
1 62678U 25009BX  26068.71779869  .00012647  00000+0  47575-3 0  9991
2 62678  97.4054 151.1927 0003699 316.8208  43.2740 15.27266411121358
